NORAD_CAT_ID,OBJECT_NAME,OBJECT_TYPE,EPOCH,MEAN_MOTION,ECCENTRICITY,INCLINATION,RA_OF_ASC_NODE,ARG_OF_PERICENTER,MEAN_ANOMALY,BSTAR,MEAN_MOTION_DOT,MEAN_MOTION_DDOT,TLE_LINE0,TLE_LINE1,TLE_LINE2,SEMIMAJOR_AXIS,PERIOD,APOGEE,PERIGEE,DECAYED
56454.0,STARLINK-5959,PAYLOAD,2024-05-18 22:48:49,14.9831482,0.0002341,70.0007,7.8876,273.3301,86.759,-2.0774e-06,-1.18e-06,0.0,0 STARLINK-5959,1 56454U 23064G   24139.95056969 -.00000118  00000-0 -20774-5 0  9994,2 56454  70.0007   7.8876 0002341 273.3301  86.7590 14.98314820 56427,6950.24,96.108,573.732,570.478,0.0
56454.0,STARLINK-5959,PAYLOAD,2024-05-19 00:24:57,14.98313182,0.0002208,70.0012,7.7206,272.9009,87.1898,3.9243e-06,-4.6e-07,0.0,0 STARLINK-5959,1 56454U 23064G   24140.01733188 -.00000046  00000-0  39243-5 0  9998,2 56454  70.0012   7.7206 0002208 272.9009  87.1898 14.98313182 56438,6950.245,96.108,573.645,570.575,0.0
56454.0,STARLINK-5959,PAYLOAD,2024-05-19 21:14:41,14.98327923,0.0003142,70.0012,5.5324,273.809,86.271,3.7443e-05,3.54e-06,0.0,0 STARLINK-5959,1 56454U 23064G   24140.88520538  .00000354  00000-0  37443-4 0  9996,2 56454  70.0012   5.5324 0003142 273.8090  86.2710 14.98327923 56928,6950.199,96.107,574.248,569.881,0.0
56454.0,STARLINK-5959,PAYLOAD,2024-05-20 14:52:10,14.98336716,0.0002942,70.0014,3.681,272.5677,87.5146,0.00014204,1.602e-05,0.0,0 STARLINK-5959,1 56454U 23064G   24141.61956099  .00001602  00000-0  14204-3 0  9999,2 56454  70.0014   3.6810 0002942 272.5677  87.5146 14.98336716 56672,6950.172,96.107,574.082,569.992,0.0
56454.0,STARLINK-5959,PAYLOAD,2024-05-20 21:16:42,14.98339473,0.0002821,70.0018,3.0073,270.3998,89.6837,0.00039191,4.587e-05,0.0,0 STARLINK-5959,1 56454U 23064G   24141.88660112  .00004587  00000-0  39191-3 0  9993,2 56454  70.0018   3.0073 0002821 270.3998  89.6837 14.98339473 57077,6950.164,96.106,573.989,570.068,0.0
56454.0,STARLINK-5959,PAYLOAD,2024-05-21 14:54:10,14.98340552,0.0002749,70.0022,1.1565,267.0749,93.0096,0.00023413,2.702e-05,0.0,0 STARLINK-5959,1 56454U 23064G   24142.62095735  .00002702  00000-0  23413-3 0  9996,2 56454  70.0022   1.1565 0002749 267.0749  93.0096 14.98340552 56821,6950.16,96.106,573.936,570.115,0.0
56454.0,STARLINK-5959,PAYLOAD,2024-05-21 21:18:42,14.98338299,0.000278,70.002,0.4835,267.8953,92.1887,0.00014024,1.581e-05,0.0,0 STARLINK-5959,1 56454U 23064G   24142.88799674  .00001581  00000-0  14024-3 0  9999,2 56454  70.0020   0.4835 0002780 267.8953  92.1887 14.98338299 57229,6950.167,96.106,573.964,570.1,0.0
56454.0,STARLINK-5959,PAYLOAD,2024-05-22 00:30:58,14.98338883,0.0002761,70.0016,0.147,267.8859,92.1984,0.00017001,1.937e-05,0.0,0 STARLINK-5959,1 56454U 23064G   24143.02151616  .00001937  00000-0  17001-3 0  9997,2 56454  70.0016   0.1470 0002761 267.8859  92.1984 14.98338883 56888,6950.165,96.106,573.949,570.111,0.0
56454.0,STARLINK-5959,PAYLOAD,2024-05-22 21:20:43,14.98333867,0.0002629,70.0021,357.9606,256.0608,104.0258,-2.1969e-05,-3.55e-06,0.0,0 STARLINK-5959,1 56454U 23064G   24143.88939554 -.00000355  00000-0 -21969-4 0  9990,2 56454  70.0021 357.9606 0002629 256.0608 104.0258 14.98333867 57372,6950.181,96.107,573.873,570.219,0.0
56454.0,STARLINK-5959,PAYLOAD,2024-05-23 14:58:12,14.98336524,0.0002591,70.0006,356.1087,256.8528,103.2342,7.4436e-06,-4e-08,0.0,0 STARLINK-5959,1 56454U 23064G   24144.62375531 -.00000004  00000-0  74436-5 0  9990,2 56454  70.0006 356.1087 0002591 256.8528 103.2342 14.98336524 57127,6950.173,96.107,573.839,570.237,0.0
56454.0,STARLINK-5959,PAYLOAD,2024-05-23 21:22:44,14.98332855,0.000267,70.0007,355.435,253.4847,106.6019,7.1669e-05,7.62e-06,0.0,0 STARLINK-5959,1 56454U 23064G   24144.89079530  .00000762  00000-0  71669-4 0  9993,2 56454  70.0007 355.4350 0002670 253.4847 106.6019 14.98332855 57163,6950.184,96.107,573.905,570.193,0.0
56454.0,STARLINK-5959,PAYLOAD,2024-05-24 00:35:00,14.98333221,0.0002664,70.0005,355.0971,256.0294,104.0569,7.1168e-05,7.56e-06,0.0,0 STARLINK-5959,1 56454U 23064G   24145.02431474  .00000756  00000-0  71168-4 0  9995,2 56454  70.0005 355.0971 0002664 256.0294 104.0569 14.98333221 57546,6950.183,96.107,573.899,570.196,0.0
56454.0,STARLINK-5959,PAYLOAD,2024-05-24 21:24:44,14.98341145,0.0002973,69.9999,352.9079,260.2814,99.8009,0.00019414,2.225e-05,0.0,0 STARLINK-5959,1 56454U 23064G   24145.89218730  .00002225  00000-0  19414-3 0  9996,2 56454  69.9999 352.9079 0002973 260.2814  99.8009 14.98341145 57317,6950.158,96.106,574.09,569.957,0.0
56454.0,STARLINK-5959,PAYLOAD,2024-05-25 00:37:01,14.98334123,0.0003136,69.9994,352.5699,258.4844,101.5963,5.0766e-05,5.13e-06,0.0,0 STARLINK-5959,1 56454U 23064G   24146.02571339  .00000513  00000-0  50766-4 0  9993,2 56454  69.9994 352.5699 0003136 258.4844 101.5963 14.98334123 57699,6950.18,96.107,574.225,569.866,0.0
56454.0,STARLINK-5959,PAYLOAD,2024-05-25 15:02:14,14.98326804,0.0002698,69.9999,351.055,252.2013,107.8852,5.2344e-05,5.32e-06,0.0,0 STARLINK-5959,1 56454U 23064G   24146.62655878  .00000532  00000-0  52344-4 0  9995,2 56454  69.9999 351.0550 0002698 252.2013 107.8852 14.98326804 57420,6950.203,96.107,573.943,570.193,0.0
56454.0,STARLINK-5959,PAYLOAD,2024-05-25 21:26:47,14.98326225,0.0002854,69.9996,350.3815,261.7829,98.3006,4.3215e-05,4.23e-06,0.0,0 STARLINK-5959,1 56454U 23064G   24146.89360018  .00000423  00000-0  43215-4 0  9999,2 56454  69.9996 350.3815 0002854 261.7829  98.3006 14.98326225 57823,6950.205,96.107,574.053,570.086,0.0
56454.0,STARLINK-5959,PAYLOAD,2024-05-26 15:04:15,14.983274,0.0003322,69.9996,348.5294,272.1489,87.929,0.00014313,1.615e-05,0.0,0 STARLINK-5959,1 56454U 23064G   24147.62795655  .00001615  00000-0  14313-3 0  9990,2 56454  69.9996 348.5294 0003322 272.1489  87.9290 14.98327400 57579,6950.201,96.107,574.375,569.757,0.0
56454.0,STARLINK-5959,PAYLOAD,2024-05-26 21:28:47,14.98336281,0.0003263,69.9996,347.8564,270.5753,89.5032,4.0055e-05,3.85e-06,0.0,0 STARLINK-5959,1 56454U 23064G   24147.89499346  .00000385  00000-0  40055-4 0  9993,2 56454  69.9996 347.8564 0003263 270.5753  89.5032 14.98336281 57974,6950.173,96.107,574.306,569.771,0.0
56454.0,STARLINK-5959,PAYLOAD,2024-05-26 23:04:55,14.98331008,0.0003199,69.9997,347.6882,270.2499,89.8293,0.00015665,1.777e-05,0.0,0 STARLINK-5959,1 56454U 23064G   24147.96175443  .00001777  00000-0  15665-3 0  9994,2 56454  69.9997 347.6882 0003199 270.2499  89.8293 14.98331008 57624,6950.19,96.107,574.278,569.831,0.0
56454.0,STARLINK-5959,PAYLOAD,2024-05-27 13:30:08,14.98330043,0.0003021,69.9995,346.1732,268.2838,91.7975,8.7605e-05,9.52e-06,0.0,0 STARLINK-5959,1 56454U 23064G   24148.56259545  .00000952  00000-0  87605-4 0  9995,2 56454  69.9995 346.1732 0003021 268.2838  91.7975 14.98330043 57715,6950.193,96.107,574.157,569.958,0.0
56454.0,STARLINK-5959,PAYLOAD,2024-05-27 21:30:48,14.98330969,0.0002968,69.9997,345.333,265.7053,94.3767,9.0827e-05,9.91e-06,0.0,0 STARLINK-5959,1 56454U 23064G   24148.89639469  .00000991  00000-0  90827-4 0  9991,2 56454  69.9997 345.3330 0002968 265.7053  94.3767 14.98330969 57762,6950.19,96.107,574.118,569.992,0.0
56454.0,STARLINK-5959,PAYLOAD,2024-05-27 23:06:56,14.98331107,0.0002977,69.9997,345.1646,266.2234,93.8585,9.0205e-05,9.83e-06,0.0,0 STARLINK-5959,1 56454U 23064G   24148.96315461  .00000983  00000-0  90205-4 0  9993,2 56454  69.9997 345.1646 0002977 266.2234  93.8585 14.98331107 58136,6950.189,96.107,574.124,569.985,0.0
56454.0,STARLINK-5959,PAYLOAD,2024-05-28 13:32:09,14.98333946,0.0002923,69.9997,343.6498,267.3674,92.7151,3.9607e-05,3.8e-06,0.0,0 STARLINK-5959,1 56454U 23064G   24149.56399322  .00000380  00000-0  39607-4 0  9998,2 56454  69.9997 343.6498 0002923 267.3674  92.7151 14.98333946 57864,6950.181,96.107,574.077,570.014,0.0
56454.0,STARLINK-5959,PAYLOAD,2024-05-28 19:56:41,14.98333303,0.0002953,69.9996,342.9764,267.211,92.8711,2.5836e-05,2.15e-06,0.0,0 STARLINK-5959,1 56454U 23064G   24149.83103315  .00000215  00000-0  25836-4 0  9999,2 56454  69.9996 342.9764 0002953 267.2110  92.8711 14.98333303 57903,6950.183,96.107,574.1,569.995,0.0
56454.0,STARLINK-5959,PAYLOAD,2024-05-28 23:08:57,14.98333581,0.0002948,69.9996,342.6398,266.9855,93.0967,2.6376e-05,2.22e-06,0.0,0 STARLINK-5959,1 56454U 23064G   24149.96455257  .00000222  00000-0  26376-4 0  9996,2 56454  69.9996 342.6398 0002948 266.9855  93.0967 14.98333581 58285,6950.182,96.107,574.096,569.998,0.0
56454.0,STARLINK-5959,PAYLOAD,2024-05-29 13:34:09,14.98331907,0.0002945,69.9996,341.1243,268.0453,92.0368,4.0979e-05,3.96e-06,0.0,0 STARLINK-5959,1 56454U 23064G   24150.56539240  .00000396  00000-0  40979-4 0  9996,2 56454  69.9996 341.1243 0002945 268.0453  92.0368 14.98331907 58017,6950.187,96.107,574.099,570.005,0.0
56454.0,STARLINK-5959,PAYLOAD,2024-05-29 21:34:50,14.98333023,0.0002946,69.9996,340.2827,267.4784,92.6038,4.9492e-05,4.98e-06,0.0,0 STARLINK-5959,1 56454U 23064G   24150.89919144  .00000498  00000-0  49492-4 0  9999,2 56454  69.9996 340.2827 0002946 267.4784  92.6038 14.98333023 58062,6950.184,96.107,574.096,570.001,0.0
56454.0,STARLINK-5959,PAYLOAD,2024-05-29 23:10:58,14.983333,0.0002946,69.9996,340.1144,267.6695,92.4127,5.1378e-05,5.2e-06,0.0,0 STARLINK-5959,1 56454U 23064G   24150.96595111  .00000520  00000-0  51378-4 0  9993,2 56454  69.9996 340.1144 0002946 267.6695  92.4127 14.98333300 58432,6950.183,96.107,574.095,570.0,0.0
56454.0,STARLINK-5959,PAYLOAD,2024-05-30 13:36:10,14.98332741,0.0002903,69.9997,338.5994,264.5462,95.5365,5.8941e-05,6.1e-06,0.0,0 STARLINK-5959,1 56454U 23064G   24151.56679069  .00000610  00000-0  58941-4 0  9998,2 56454  69.9997 338.5994 0002903 264.5462  95.5365 14.98332741 58164,6950.184,96.107,574.067,570.032,0.0
56454.0,STARLINK-5959,PAYLOAD,2024-05-30 21:36:50,14.98334193,0.0002902,69.9996,337.7577,263.7862,96.2966,6.99e-05,7.41e-06,0.0,0 STARLINK-5959,1 56454U 23064G   24151.90058891  .00000741  00000-0  69900-4 0  9992,2 56454  69.9996 337.7577 0002902 263.7862  96.2966 14.98334193 58219,6950.18,96.107,574.062,570.028,0.0
